[
    {
        "Altitude(m)": 604969.0890852124,
        "Argument of Periapsis(deg)": 0.0,
        "Eccentricity": 0.0,
        "Inclination(deg)": 60.0,
        "Latitude(deg)": -0.09261801504146745,
        "Longitude(deg)": 174.97752745633093,
        "Mean Anomaly(deg)": 0.0,
        "RAAN(deg)": 275.0,
        "Satellite Name": "Test1 1210",
        "Satellite Number": 1210,
        "Semi-Major Axis(m)": 6980739.136638005,
        "Time(s)": 0
    },
    {
        "Altitude(m)": 604900.0288773746,
        "Argument of Periapsis(deg)": 0.00010418945913296404,
        "Eccentricity": 0.0,
        "Inclination(deg)": 60.0,
        "Latitude(deg)": 0.4478074442555399,
        "Longitude(deg)": 175.24565135414102,
        "Mean Anomaly(deg)": 0.620106145461853,
        "RAAN(deg)": 274.9995799508602,
        "Satellite Name": "Test1 1210",
        "Satellite Number": 1210,
        "Semi-Major Axis(m)": 6980739.136638005,
        "Time(s)": 10
    },
    {
        "Altitude(m)": 604834.1967311634,
        "Argument of Periapsis(deg)": 0.0002083789182659281,
        "Eccentricity": 0.0,
        "Inclination(deg)": 60.0,
        "Latitude(deg)": 0.9882296765335206,
        "Longitude(deg)": 175.5138266667942,
        "Mean Anomaly(deg)": 1.240212290923655,
        "RAAN(deg)": 274.9991599017205,
        "Satellite Name": "Test1 1210",
        "Satellite Number": 1210,
        "Semi-Major Axis(m)": 6980739.136638005,
        "Time(s)": 20
    },
    {
        "Altitude(m)": 604771.59902546,
        "Argument of Periapsis(deg)": 0.00031256837739889213,
        "Eccentricity": 0.0,
        "Inclination(deg)": 60.0,
        "Latitude(deg)": 1.528631595691354,
        "Longitude(deg)": 175.78210778373,
        "Mean Anomaly(deg)": 1.8603184363855083,
        "RAAN(deg)": 274.9987398525808,
        "Satellite Name": "Test1 1210",
        "Satellite Number": 1210,
        "Semi-Major Axis(m)": 6980739.136638005,
        "Time(s)": 30
    },
    {
        "Altitude(m)": 604712.2406092484,
        "Argument of Periapsis(deg)": 0.0004167578365318562,
        "Eccentricity": 0.0,
        "Inclination(deg)": 60.0,
        "Latitude(deg)": 2.0689960941643295,
        "Longitude(deg)": 176.05054966293116,
        "Mean Anomaly(deg)": 2.48042458184731,
        "RAAN(deg)": 274.998319803441,
        "Satellite Name": "Test1 1210",
        "Satellite Number": 1210,
        "Semi-Major Axis(m)": 6980739.136638005,
        "Time(s)": 40
    },
    {
        "Altitude(m)": 604656.1248020686,
        "Argument of Periapsis(deg)": 0.0005209472956648203,
        "Eccentricity": 0.0,
        "Inclination(deg)": 60.0,
        "Latitude(deg)": 2.6093060330151627,
        "Longitude(deg)": 176.3192068543589,
        "Mean Anomaly(deg)": 3.1005307273091636,
        "RAAN(deg)": 274.9978997543013,
        "Satellite Name": "Test1 1210",
        "Satellite Number": 1210,
        "Semi-Major Axis(m)": 6980739.136638005,
        "Time(s)": 50
    },
    {
        "Altitude(m)": 604603.2533952019,
        "Argument of Periapsis(deg)": 0.0006251367547977843,
        "Eccentricity": 0.0,
        "Inclination(deg)": 60.0,
        "Latitude(deg)": 3.1495442319817366,
        "Longitude(deg)": 176.5881340363497,
        "Mean Anomaly(deg)": 3.7206368727709656,
        "RAAN(deg)": 274.99747970516154,
        "Satellite Name": "Test1 1210",
        "Satellite Number": 1210,
        "Semi-Major Axis(m)": 6980739.136638005,
        "Time(s)": 60
    },
    {
        "Altitude(m)": 604553.626653639,
        "Argument of Periapsis(deg)": 0.0007293262139307483,
        "Eccentricity": 0.0,
        "Inclination(deg)": 60.0,
        "Latitude(deg)": 3.6896934594723056,
        "Longitude(deg)": 176.85738655213078,
        "Mean Anomaly(deg)": 4.340743018232819,
        "RAAN(deg)": 274.9970596560218,
        "Satellite Name": "Test1 1210",
        "Satellite Number": 1210,
        "Semi-Major Axis(m)": 6980739.136638005,
        "Time(s)": 70
    },
    {
        "Altitude(m)": 604507.243318774,
        "Argument of Periapsis(deg)": 0.0008335156730637124,
        "Eccentricity": 0.0,
        "Inclination(deg)": 60.0,
        "Latitude(deg)": 4.229736422496037,
        "Longitude(deg)": 177.1270194336089,
        "Mean Anomaly(deg)": 4.96084916369462,
        "RAAN(deg)": 274.99663960688207,
        "Satellite Name": "Test1 1210",
        "Satellite Number": 1210,
        "Semi-Major Axis(m)": 6980739.136638005,
        "Time(s)": 80
    },
    {
        "Altitude(m)": 604464.1006118548,
        "Argument of Periapsis(deg)": 0.0009377051321966765,
        "Eccentricity": 0.0,
        "Inclination(deg)": 60.0,
        "Latitude(deg)": 4.769655756511164,
        "Longitude(deg)": 177.39708793820816,
        "Mean Anomaly(deg)": 5.580955309156474,
        "RAAN(deg)": 274.9962195577423,
        "Satellite Name": "Test1 1210",
        "Satellite Number": 1210,
        "Semi-Major Axis(m)": 6980739.136638005,
        "Time(s)": 90
    },
    {
        "Altitude(m)": 604424.1942381965,
        "Argument of Periapsis(deg)": 0.0010418945913296407,
        "Eccentricity": 0.0,
        "Inclination(deg)": 60.0,
        "Latitude(deg)": 5.309434015178361,
        "Longitude(deg)": 177.66764808591338,
        "Mean Anomaly(deg)": 6.201061454618327,
        "RAAN(deg)": 274.99579950860254,
        "Satellite Name": "Test1 1210",
        "Satellite Number": 1210,
        "Semi-Major Axis(m)": 6980739.136638005,
        "Time(s)": 100
    },
    {
        "Altitude(m)": 604387.518392106,
        "Argument of Periapsis(deg)": 0.0011460840504626045,
        "Eccentricity": 0.0,
        "Inclination(deg)": 60.0,
        "Latitude(deg)": 5.849053660009415,
        "Longitude(deg)": 177.93875568367304,
        "Mean Anomaly(deg)": 6.821167600080129,
        "RAAN(deg)": 274.99537945946287,
        "Satellite Name": "Test1 1210",
        "Satellite Number": 1210,
        "Semi-Major Axis(m)": 6980739.136638005,
        "Time(s)": 110
    },
    {
        "Altitude(m)": 604354.0657625966,
        "Argument of Periapsis(deg)": 0.0012502735095955685,
        "Eccentricity": 0.0,
        "Inclination(deg)": 60.0,
        "Latitude(deg)": 6.3884970498910425,
        "Longitude(deg)": 178.21046686293963,
        "Mean Anomaly(deg)": 7.441273745541982,
        "RAAN(deg)": 274.9949594103231,
        "Satellite Name": "Test1 1210",
        "Satellite Number": 1210,
        "Semi-Major Axis(m)": 6980739.136638005,
        "Time(s)": 120
    },
    {
        "Altitude(m)": 604323.8275397904,
        "Argument of Periapsis(deg)": 0.0013544629687285324,
        "Eccentricity": 0.0,
        "Inclination(deg)": 60.0,
        "Latitude(deg)": 6.92774643047206,
        "Longitude(deg)": 178.48283861750187,
        "Mean Anomaly(deg)": 8.061379891003783,
        "RAAN(deg)": 274.99453936118334,
        "Satellite Name": "Test1 1210",
        "Satellite Number": 1210,
        "Semi-Major Axis(m)": 6980739.136638005,
        "Time(s)": 130
    },
    {
        "Altitude(m)": 604296.7934220956,
        "Argument of Periapsis(deg)": 0.0014586524278614966,
        "Eccentricity": 0.0,
        "Inclination(deg)": 60.0,
        "Latitude(deg)": 7.4667839234031845,
        "Longitude(deg)": 178.75592782876578,
        "Mean Anomaly(deg)": 8.681486036465637,
        "RAAN(deg)": 274.9941193120436,
        "Satellite Name": "Test1 1210",
        "Satellite Number": 1210,
        "Semi-Major Axis(m)": 6980739.136638005,
        "Time(s)": 140
    },
    {
        "Altitude(m)": 604272.9516240867,
        "Argument of Periapsis(deg)": 0.0015628418869944607,
        "Eccentricity": 0.0,
        "Inclination(deg)": 60.0,
        "Latitude(deg)": 8.005591515407993,
        "Longitude(deg)": 179.0297918042594,
        "Mean Anomaly(deg)": 9.30159218192744,
        "RAAN(deg)": 274.9936992629039,
        "Satellite Name": "Test1 1210",
        "Satellite Number": 1210,
        "Semi-Major Axis(m)": 6980739.136638005,
        "Time(s)": 150
    },
    {
        "Altitude(m)": 604252.2888851333,
        "Argument of Periapsis(deg)": 0.0016670313461274247,
        "Eccentricity": 0.0,
        "Inclination(deg)": 60.0,
        "Latitude(deg)": 8.544151047174084,
        "Longitude(deg)": 179.3044888165193,
        "Mean Anomaly(deg)": 9.921698327389292,
        "RAAN(deg)": 274.99327921376414,
        "Satellite Name": "Test1 1210",
        "Satellite Number": 1210,
        "Semi-Major Axis(m)": 6980739.136638005,
        "Time(s)": 160
    },
    {
        "Altitude(m)": 604234.7904787309,
        "Argument of Periapsis(deg)": 0.0017712208052603888,
        "Eccentricity": 0.0,
        "Inclination(deg)": 60.0,
        "Latitude(deg)": 9.082444202050816,
        "Longitude(deg)": 179.58007712951266,
        "Mean Anomaly(deg)": 10.541804472851094,
        "RAAN(deg)": 274.99285916462435,
        "Satellite Name": "Test1 1210",
        "Satellite Number": 1210,
        "Semi-Major Axis(m)": 6980739.136638005,
        "Time(s)": 170
    },
    {
        "Altitude(m)": 604220.4402225735,
        "Argument of Periapsis(deg)": 0.001875410264393353,
        "Eccentricity": 0.0,
        "Inclination(deg)": 60.0,
        "Latitude(deg)": 9.620452494533613,
        "Longitude(deg)": 179.856615538374,
        "Mean Anomaly(deg)": 11.161910618312948,
        "RAAN(deg)": 274.9924391154846,
        "Satellite Name": "Test1 1210",
        "Satellite Number": 1210,
        "Semi-Major Axis(m)": 6980739.136638005,
        "Time(s)": 180
    },
    {
        "Altitude(m)": 604209.2204892802,
        "Argument of Periapsis(deg)": 0.0019795997235263173,
        "Eccentricity": 0.0,
        "Inclination(deg)": 60.0,
        "Latitude(deg)": 10.158157258520735,
        "Longitude(deg)": -179.8658360903901,
        "Mean Anomaly(deg)": 11.782016763774802,
        "RAAN(deg)": 274.99201906634494,
        "Satellite Name": "Test1 1210",
        "Satellite Number": 1210,
        "Semi-Major Axis(m)": 6980739.136638005,
        "Time(s)": 190
    }
]